{"type": "FeatureCollection", "features": [ {"type": "Feature", "properties": {"norad_id": 37600, "name": "FENGYUN 1C DEB", "group": "fengyun-1c-debris", "lat": -26.584245623689082, "lon": 143.39739099200065, "alt_km": 948.9255355558098, "timestamp": "2025-12-07T22:37:43.369533+00:00", "meta": {"OBJECT_NAME": "FENGYUN 1C DEB", "OBJECT_ID": "1999-025EKU", "EPOCH": "2025-12-05T16:54:41.229504", "MEAN_MOTION": 13.82454545, "ECCENTRICITY": 0.03574715, "INCLINATION": 98.9362, "RA_OF_ASC_NODE": 136.7535, "ARG_OF_PERICENTER": 68.678, "MEAN_ANOMALY": 295.2139, "EPHEMERIS_TYPE": 0, "CLASSIFICATION_TYPE": "U", "NORAD_CAT_ID": 37600, "ELEMENT_SET_NO": 999, "REV_AT_EPOCH": 88390, "BSTAR": 0.0047689903, "MEAN_MOTION_DOT": 8.396e-05, "MEAN_MOTION_DDOT": 0}, "tle": {"line1": "1 37600U 99025EKU 25339.70464386  .00008396  00000+0  47690-2 0  9994", "line2": "2 37600  98.9362 136.7535 0357471  68.6780 295.2139 13.82454545883907"}}, "geometry": {"type": "Point", "coordinates": [143.39739099200065, -26.584245623689082]}}, {"type": "Feature", "properties": {"norad_id": 37683, "name": "FENGYUN 1C DEB", "group": "fengyun-1c-debris", "lat": 78.8999557060715, "lon": 128.5812835902732, "alt_km": 783.9419463824852, "timestamp": "2025-12-07T22:37:43.369543+00:00", "meta": {"OBJECT_NAME": "FENGYUN 1C DEB", "OBJECT_ID": "1999-025EKY", "EPOCH": "2025-12-02T13:11:44.275200", "MEAN_MOTION": 13.31856332, "ECCENTRICITY": 0.0584424, "INCLINATION": 98.0017, "RA_OF_ASC_NODE": 258.5506, "ARG_OF_PERICENTER": 151.0621, "MEAN_ANOMALY": 26.3812, "EPHEMERIS_TYPE": 0, "CLASSIFICATION_TYPE": "U", "NORAD_CAT_ID": 37683, "ELEMENT_SET_NO": 999, "REV_AT_EPOCH": 29104, "BSTAR": 0.00139877, "MEAN_MOTION_DOT": 1.732e-05, "MEAN_MOTION_DDOT": 0}, "tle": {"line1": "1 37683U 99025EKY 25336.54981800  .00001732  00000+0  13988-2 0  9999", "line2": "2 37683  98.0017 258.5506 0584424 151.0621  26.3812 13.31856332291041"}}, "geometry": {"type": "Point", "coordinates": [128.5812835902732, 78.8999557060715]}}, {"type": "Feature", "properties": {"norad_id": 37686, "name": "FENGYUN 1C DEB", "group": "fengyun-1c-debris", "lat": 59.71196585951066, "lon": -14.862538066818484, "alt_km": 825.398345451963, "timestamp": "2025-12-07T22:37:43.369554+00:00", "meta": {"OBJECT_NAME": "FENGYUN 1C DEB", "OBJECT_ID": "1999-025ELB", "EPOCH": "2025-12-07T08:01:13.554624", "MEAN_MOTION": 13.35357238, "ECCENTRICITY": 0.03961144, "INCLINATION": 99.0216, "RA_OF_ASC_NODE": 0.3813, "ARG_OF_PERICENTER": 55.6647, "MEAN_ANOMALY": 320.2432, "EPHEMERIS_TYPE": 0, "CLASSIFICATION_TYPE": "U", "NORAD_CAT_ID": 37686, "ELEMENT_SET_NO": 999, "REV_AT_EPOCH": 60555, "BSTAR": 0.00092551492, "MEAN_MOTION_DOT": 6.98e-06, "MEAN_MOTION_DDOT": 0}, "tle": {"line1": "1 37686U 99025ELB 25341.33418466  .00000698  00000+0  92551-3 0  9992", "line2": "2 37686  99.0216   0.3813 0396114  55.6647 320.2432 13.35357238605558"}}, "geometry": {"type": "Point", "coordinates": [-14.862538066818484, 59.71196585951066]}}, {"type": "Feature", "properties": {"norad_id": 37687, "name": "FENGYUN 1C DEB", "group": "fengyun-1c-debris", "lat": -32.218983716962114, "lon": 22.87788226959937, "alt_km": 773.6578925245431, "timestamp": "2025-12-07T22:37:43.369564+00:00", "meta": {"OBJECT_NAME": "FENGYUN 1C DEB", "OBJECT_ID": "1999-025ELC", "EPOCH": "2025-12-06T21:37:50.644704", "MEAN_MOTION": 13.85227837, "ECCENTRICITY": 0.0333599, "INCLINATION": 98.205, "RA_OF_ASC_NODE": 16.7473, "ARG_OF_PERICENTER": 15.0559, "MEAN_ANOMALY": 163.7513, "EPHEMERIS_TYPE": 0, "CLASSIFICATION_TYPE": "U", "NORAD_CAT_ID": 37687, "ELEMENT_SET_NO": 999, "REV_AT_EPOCH": 83173, "BSTAR": 0.0055161869, "MEAN_MOTION_DOT": 9.645e-05, "MEAN_MOTION_DDOT": 0}, "tle": {"line1": "1 37687U 99025ELC 25340.90128061  .00009645  00000+0  55162-2 0  9991", "line2": "2 37687  98.2050  16.7473 0333599  15.0559 163.7513 13.85227837831736"}}, "geometry": {"type": "Point", "coordinates": [22.87788226959937, -32.218983716962114]}}, {"type": "Feature", "properties": {"norad_id": 37689, "name": "FENGYUN 1C DEB", "group": "fengyun-1c-debris", "lat": -13.964433327215932, "lon": 24.83630249907168, "alt_km": 735.488070387366, "timestamp": "2025-12-07T22:37:43.369575+00:00", "meta": {"OBJECT_NAME": "FENGYUN 1C DEB", "OBJECT_ID": "1999-025ELE", "EPOCH": "2025-12-06T01:55:54.427584", "MEAN_MOTION": 14.48459711, "ECCENTRICITY": 0.00203163, "INCLINATION": 98.9199, "RA_OF_ASC_NODE": 20.6326, "ARG_OF_PERICENTER": 259.8016, "MEAN_ANOMALY": 100.0884, "EPHEMERIS_TYPE": 0, "CLASSIFICATION_TYPE": "U", "NORAD_CAT_ID": 37689, "ELEMENT_SET_NO": 999, "REV_AT_EPOCH": 57716, "BSTAR": 0.0039467762, "MEAN_MOTION_DOT": 0.00014819, "MEAN_MOTION_DDOT": 0}, "tle": {"line1": "1 37689U 99025ELE 25340.08049106  .00014819  00000+0  39468-2 0  9994", "line2": "2 37689  98.9199  20.6326 0020316 259.8016 100.0884 14.48459711577163"}}, "geometry": {"type": "Point", "coordinates": [24.83630249907168, -13.964433327215932]}}, {"type": "Feature", "properties": {"norad_id": 37691, "name": "FENGYUN 1C DEB", "group": "fengyun-1c-debris", "lat": -71.65325787676822, "lon": -88.04297812619754, "alt_km": 808.1325051374652, "timestamp": "2025-12-07T22:37:43.369585+00:00", "meta": {"OBJECT_NAME": "FENGYUN 1C DEB", "OBJECT_ID": "1999-025ELG", "EPOCH": "2025-12-05T11:39:48.105216", "MEAN_MOTION": 14.57370835, "ECCENTRICITY": 0.02808842, "INCLINATION": 98.3726, "RA_OF_ASC_NODE": 243.1169, "ARG_OF_PERICENTER": 172.5567, "MEAN_ANOMALY": 187.9938, "EPHEMERIS_TYPE": 0, "CLASSIFICATION_TYPE": "U", "NORAD_CAT_ID": 37691, "ELEMENT_SET_NO": 999, "REV_AT_EPOCH": 85528, "BSTAR": 0.003181063, "MEAN_MOTION_DOT": 0.00024892, "MEAN_MOTION_DDOT": 0}, "tle": {"line1": "1 37691U 99025ELG 25339.48597344  .00024892  00000+0  31811-2 0  9997", "line2": "2 37691  98.3726 243.1169 0280884 172.5567 187.9938 14.57370835855288"}}, "geometry": {"type": "Point", "coordinates": [-88.04297812619754, -71.65325787676822]}}, {"type": "Feature", "properties": {"norad_id": 37693, "name": "FENGYUN 1C DEB", "group": "fengyun-1c-debris", "lat": 60.66661521111662, "lon": 177.72055828042855, "alt_km": 812.9888764117977, "timestamp": "2025-12-07T22:37:43.369595+00:00", "meta": {"OBJECT_NAME": "FENGYUN 1C DEB", "OBJECT_ID": "1999-025ELJ", "EPOCH": "2025-12-06T17:55:30.127008", "MEAN_MOTION": 14.0846487, "ECCENTRICITY": 0.00725318, "INCLINATION": 98.6978, "RA_OF_ASC_NODE": 340.7595, "ARG_OF_PERICENTER": 91.6733, "MEAN_ANOMALY": 85.1425, "EPHEMERIS_TYPE": 0, "CLASSIFICATION_TYPE": "U", "NORAD_CAT_ID": 37693, "ELEMENT_SET_NO": 999, "REV_AT_EPOCH": 62064, "BSTAR": 0.00098860763, "MEAN_MOTION_DOT": 1.695e-05, "MEAN_MOTION_DDOT": 0}, "tle": {"line1": "1 37693U 99025ELJ 25340.74687647  .00001695  00000+0  98861-3 0  9991", "line2": "2 37693  98.6978 340.7595 0072531  91.6733  85.1425 14.08464870620642"}}, "geometry": {"type": "Point", "coordinates": [177.72055828042855, 60.66661521111662]}}, {"type": "Feature", "properties": {"norad_id": 37694, "name": "FENGYUN 1C DEB", "group": "fengyun-1c-debris", "lat": 64.24094984892822, "lon": 32.54317607755497, "alt_km": 749.4798188725808, "timestamp": "2025-12-07T22:37:43.369606+00:00", "meta": {"OBJECT_NAME": "FENGYUN 1C DEB", "OBJECT_ID": "1999-025ELK", "EPOCH": "2025-11-23T11:03:37.255104", "MEAN_MOTION": 14.16434986, "ECCENTRICITY": 0.01492409, "INCLINATION": 98.199, "RA_OF_ASC_NODE": 36.5782, "ARG_OF_PERICENTER": 149.1235, "MEAN_ANOMALY": 270.2915, "EPHEMERIS_TYPE": 0, "CLASSIFICATION_TYPE": "U", "NORAD_CAT_ID": 37694, "ELEMENT_SET_NO": 999, "REV_AT_EPOCH": 51431, "BSTAR": 0.0018793287, "MEAN_MOTION_DOT": 4.13e-05, "MEAN_MOTION_DDOT": 0}, "tle": {"line1": "1 37694U 99025ELK 25327.46084786  .00004130  00000+0  18793-2 0  9993", "line2": "2 37694  98.1990  36.5782 0149240 149.1235 270.2915 14.16434986514319"}}, "geometry": {"type": "Point", "coordinates": [32.54317607755497, 64.24094984892822]}}, {"type": "Feature", "properties": {"norad_id": 37695, "name": "FENGYUN 1C DEB", "group": "fengyun-1c-debris", "lat": 44.14829496083522, "lon": -145.9640304664633, "alt_km": 1264.2257658485769, "timestamp": "2025-12-07T22:37:43.369616+00:00", "meta": {"OBJECT_NAME": "FENGYUN 1C DEB", "OBJECT_ID": "1999-025ELL", "EPOCH": "2025-12-05T21:35:58.305696", "MEAN_MOTION": 13.64964142, "ECCENTRICITY": 0.04651514, "INCLINATION": 98.2113, "RA_OF_ASC_NODE": 24.2422, "ARG_OF_PERICENTER": 279.1549, "MEAN_ANOMALY": 266.6228, "EPHEMERIS_TYPE": 0, "CLASSIFICATION_TYPE": "U", "NORAD_CAT_ID": 37695, "ELEMENT_SET_NO": 999, "REV_AT_EPOCH": 89158, "BSTAR": 0.001955193, "MEAN_MOTION_DOT": 3.282e-05, "MEAN_MOTION_DDOT": 0}, "tle": {"line1": "1 37695U 99025ELL 25339.89998039  .00003282  00000+0  19552-2 0  9990", "line2": "2 37695  98.2113  24.2422 0465151 279.1549 266.6228 13.64964142891584"}}, "geometry": {"type": "Point", "coordinates": [-145.9640304664633, 44.14829496083522]}}, {"type": "Feature", "properties": {"norad_id": 37704, "name": "FENGYUN 1C DEB", "group": "fengyun-1c-debris", "lat": 13.219726759573602, "lon": 173.713437870148, "alt_km": 1175.9414879864198, "timestamp": "2025-12-07T22:37:43.369626+00:00", "meta": {"OBJECT_NAME": "FENGYUN 1C DEB", "OBJECT_ID": "1999-025ELV", "EPOCH": "2025-11-13T18:53:12.256224", "MEAN_MOTION": 13.70394507, "ECCENTRICITY": 0.02407203, "INCLINATION": 98.3154, "RA_OF_ASC_NODE": 154.7598, "ARG_OF_PERICENTER": 256.7939, "MEAN_ANOMALY": 163.8462, "EPHEMERIS_TYPE": 0, "CLASSIFICATION_TYPE": "U", "NORAD_CAT_ID": 37704, "ELEMENT_SET_NO": 999, "REV_AT_EPOCH": 61968, "BSTAR": 0.0028357246, "MEAN_MOTION_DOT": 3.039e-05, "MEAN_MOTION_DDOT": 0}, "tle": {"line1": "1 37704U 99025ELV 25317.78694741  .00003039  00000+0  28357-2 0  9991", "line2": "2 37704  98.3154 154.7598 0240720 256.7939 163.8462 13.70394507619687"}}, "geometry": {"type": "Point", "coordinates": [173.713437870148, 13.219726759573602]}}]}